NORAD_CAT_ID,OBJECT_NAME,OBJECT_TYPE,EPOCH,MEAN_MOTION,ECCENTRICITY,INCLINATION,RA_OF_ASC_NODE,ARG_OF_PERICENTER,MEAN_ANOMALY,BSTAR,MEAN_MOTION_DOT,MEAN_MOTION_DDOT,TLE_LINE0,TLE_LINE1,TLE_LINE2,SEMIMAJOR_AXIS,PERIOD,APOGEE,PERIGEE,DECAYED
53533.0,STARLINK-4493,PAYLOAD,2022-11-12 11:30:29,15.08838938,0.0001676999999999,53.2183,120.4228,51.1807,308.9335,0.0001738,2.479e-05,0.0,0 STARLINK-4493,1 53533U 22101G   22316.47950996  .00002479  00000-0  17380-3 0  9992,2 53533  53.2183 120.4228 0001677  51.1807 308.9335 15.08838938 13014,6917.884,95.438,540.909,538.589,0.0
53533.0,STARLINK-4493,PAYLOAD,2022-11-12 17:52:02,15.08842996,0.0001686,53.2184,119.2335,51.0534,309.0608,0.00020364,2.955e-05,0.0,0 STARLINK-4493,1 53533U 22101G   22316.74446783  .00002955  00000-0  20364-3 0  9991,2 53533  53.2184 119.2335 0001686  51.0534 309.0608 15.08842996 13054,6917.871,95.437,540.903,538.57,0.0
53533.0,STARLINK-4493,PAYLOAD,2022-11-13 09:45:53,15.08844691,0.0001716,53.2184,116.2603,51.967,308.1477,0.00014381,2.002e-05,0.0,0 STARLINK-4493,1 53533U 22101G   22317.40686705  .00002002  00000-0  14381-3 0  9990,2 53533  53.2184 116.2603 0001716  51.9670 308.1477 15.08844691 13152,6917.866,95.437,540.918,538.544,0.0
53533.0,STARLINK-4493,PAYLOAD,2022-11-13 17:42:49,15.0884451,0.0001709,53.2185,114.7731,50.3728,309.7414,0.00011045,1.47e-05,0.0,0 STARLINK-4493,1 53533U 22101G   22317.73806789  .00001470  00000-0  11045-3 0  9994,2 53533  53.2185 114.7731 0001709  50.3728 309.7414 15.08844510 13201,6917.8669999999975,95.437,540.914,538.549,0.0
53533.0,STARLINK-4493,PAYLOAD,2022-11-14 06:25:54,15.08838657,0.0001651,53.2198,112.3979,61.0219,299.0939,-3.6747e-05,-8.73e-06,0.0,0 STARLINK-4493,1 53533U 22101G   22318.26799557 -.00000873  00000-0 -36747-4 0  9992,2 53533  53.2198 112.3979 0001651  61.0219 299.0939 15.08838657 13289,6917.884,95.438,540.8919999999998,538.607,0.0
53533.0,STARLINK-4493,PAYLOAD,2022-11-14 11:12:04,15.08838423,0.000175,53.2182,111.5014,46.6777,313.4361,-3.6043e-05,-8.62e-06,0.0,0 STARLINK-4493,1 53533U 22101G   22318.46671574 -.00000862  00000-0 -36043-4 0  9999,2 53533  53.2182 111.5014 0001750  46.6777 313.4361 15.08838423 13316,6917.885,95.438,540.961,538.54,0.0
53533.0,STARLINK-4493,PAYLOAD,2022-11-14 15:58:13,15.08841391,0.0001702,53.2186,110.6106,50.3184,309.7958,-1.0216e-05,-4.51e-06,0.0,0 STARLINK-4493,1 53533U 22101G   22318.66543293 -.00000451  00000-0 -10216-4 0  9995,2 53533  53.2186 110.6106 0001702  50.3184 309.7958 15.08841391 13344,6917.876,95.437,540.919,538.564,0.0
53533.0,STARLINK-4493,PAYLOAD,2022-11-15 04:41:17,15.08847447,0.0001701,53.2185,108.2314,49.5102,310.6038,2.0103e-05,3.2e-07,0.0,0 STARLINK-4493,1 53533U 22101G   22319.19534653  .00000032  00000-0  20103-4 0  9993,2 53533  53.2185 108.2314 0001701  49.5102 310.6038 15.08847447 13423,6917.858,95.437,540.899,538.5459999999998,0.0
53533.0,STARLINK-4493,PAYLOAD,2022-11-15 12:38:13,15.08840304,0.0001713,53.2187,106.7446,47.2539,312.8597,7.038300000000001e-05,8.32e-06,0.0,0 STARLINK-4493,1 53533U 22101G   22319.52654999  .00000832  00000-0  70383-4 0  9999,2 53533  53.2187 106.7446 0001713  47.2539 312.8597 15.08840304 13470,6917.879,95.438,540.929,538.559,0.0
53533.0,STARLINK-4493,PAYLOAD,2022-11-15 17:24:23,15.0883688,0.0001710999999999,53.2189,105.8526,47.6851,312.4286,4.229e-05,3.85e-06,0.0,0 STARLINK-4493,1 53533U 22101G   22319.72527375  .00000385  00000-0  42290-4 0  9997,2 53533  53.2189 105.8526 0001711  47.6851 312.4286 15.08836880 13509,6917.89,95.438,540.939,538.571,0.0
53533.0,STARLINK-4493,PAYLOAD,2022-11-16 14:04:24,15.08836844,0.0001595,53.2193,101.9868,49.6154,310.4978,9.5507e-05,1.232e-05,0.0,0 STARLINK-4493,1 53533U 22101G   22320.58639510  .00001232  00000-0  95507-4 0  9999,2 53533  53.2193 101.9868 0001595  49.6154 310.4978 15.08836844 13638,6917.89,95.438,540.8580000000002,538.6519999999998,0.0
53533.0,STARLINK-4493,PAYLOAD,2022-11-16 17:15:10,15.08840487,0.0001717,53.2192,101.392,48.2354,311.8785,0.00012784,1.747e-05,0.0,0 STARLINK-4493,1 53533U 22101G   22320.71887280  .00001747  00000-0  12784-3 0  9999,2 53533  53.2192 101.3920 0001717  48.2354 311.8785 15.08840487 13654,6917.879,95.438,540.932,538.556,0.0
53533.0,STARLINK-4493,PAYLOAD,2022-11-17 02:47:29,15.08841117,0.0001295,53.2189,99.6089,62.1686,297.9437,-5.144e-05,-1.106e-05,0.0,0 STARLINK-4493,1 53533U 22101G   22321.11631469 -.00001106  00000-0 -51440-4 0  9994,2 53533  53.2189  99.6089 0001295  62.1686 297.9437 15.08841117 13715,6917.877,95.437,540.638,538.846,0.0
53533.0,STARLINK-4493,PAYLOAD,2022-11-17 12:19:48,15.08839054,0.0001809,53.219,97.8243,49.6827,310.4323,-2.8722e-05,-7.45e-06,0.0,0 STARLINK-4493,1 53533U 22101G   22321.51375923 -.00000745  00000-0 -28722-4 0  9993,2 53533  53.2190  97.8243 0001809  49.6827 310.4323 15.08839054 13775,6917.8830000000025,95.438,541.0,538.497,0.0
53533.0,STARLINK-4493,PAYLOAD,2022-11-17 15:30:35,15.08835581,0.000188,53.2193,97.23,47.5266,312.5885,4.119e-05,3.67e-06,0.0,0 STARLINK-4493,1 53533U 22101G   22321.64624011  .00000367  00000-0  41190-4 0  9994,2 53533  53.2193  97.2300 0001880  47.5266 312.5885 15.08835581 13798,6917.894,95.438,541.059,538.4580000000002,0.0
53533.0,STARLINK-4493,PAYLOAD,2022-11-18 12:10:35,15.0885021,0.0001797,53.2192,93.3642,47.7074,312.407,0.00012359,1.6800000000000002e-05,0.0,0 STARLINK-4493,1 53533U 22101G   22322.50735056  .00001680  00000-0  12359-3 0  9995,2 53533  53.2192  93.3642 0001797  47.7074 312.4070 15.08850210 13925,6917.849,95.437,540.957,538.471,0.0
53533.0,STARLINK-4493,PAYLOAD,2022-11-18 18:32:07,15.08855041,0.0001789,53.2195,92.174,50.7573,309.3577,0.00015818,2.231e-05,0.0,0 STARLINK-4493,1 53533U 22101G   22322.77230544  .00002231  00000-0  15818-3 0  9992,2 53533  53.2195  92.1740 0001789  50.7573 309.3577 15.08855041 13961,6917.834,95.437,540.937,538.462,0.0
53533.0,STARLINK-4493,PAYLOAD,2022-11-19 12:01:21,15.08846912,0.0001710999999999,53.2192,88.90299999999998,51.1362,308.9782,0.00018636,2.68e-05,0.0,0 STARLINK-4493,1 53533U 22101G   22323.50094842  .00002680  00000-0  18636-3 0  9992,2 53533  53.2192  88.9030 0001711  51.1362 308.9782 15.08846912 14072,6917.859,95.437,540.908,538.5409999999998,0.0
53533.0,STARLINK-4493,PAYLOAD,2022-11-20 13:27:31,15.08843128,0.0001579,53.2187,84.1436,51.4506,308.6627,-0.00010143,-1.902e-05,0.0,0 STARLINK-4493,1 53533U 22101G   22324.56078220 -.00001902  00000-0 -10143-3 0  9994,2 53533  53.2187  84.1436 0001579  51.4506 308.6627 15.08843128 14238,6917.871,95.437,540.828,538.643,0.0
53533.0,STARLINK-4493,PAYLOAD,2022-11-20 18:13:41,15.08844722,0.0001844,53.2196,83.2544,42.4535,317.66,-4.7025e-05,-1.037e-05,0.0,0 STARLINK-4493,1 53533U 22101G   22324.75950699 -.00001037  00000-0 -47025-4 0  9993,2 53533  53.2196  83.2544 0001844  42.4535 317.6600 15.08844722 14260,6917.866,95.437,541.007,538.455,0.0
53533.0,STARLINK-4493,PAYLOAD,2022-11-21 10:07:33,15.08836789,0.0001786,53.2194,80.2804,46.1653,313.9487,-5.3221e-05,-1.135e-05,0.0,0 STARLINK-4493,1 53533U 22101G   22325.42191010 -.00001135  00000-0 -53221-4 0  9996,2 53533  53.2194  80.2804 0001786  46.1653 313.9487 15.08836789 14368,6917.89,95.438,540.991,538.52,0.0
53533.0,STARLINK-4493,PAYLOAD,2022-11-21 11:42:56,15.08836796,0.0001797,53.2194,79.9831,45.6902,314.4237,-5.3095e-05,-1.133e-05,0.0,0 STARLINK-4493,1 53533U 22101G   22325.48815004 -.00001133  00000-0 -53095-4 0  9995,2 53533  53.2194  79.9831 0001797  45.6902 314.4237 15.08836796 14374,6917.89,95.438,540.998,538.512,0.0
53533.0,STARLINK-4493,PAYLOAD,2022-11-21 14:53:42,15.08839352,0.0001846,53.2195,79.3886,44.3192,315.7948,-3.4066e-05,-8.3e-06,0.0,0 STARLINK-4493,1 53533U 22101G   22325.62062815 -.00000830  00000-0 -34066-4 0  9995,2 53533  53.2195  79.3886 0001846  44.3192 315.7948 15.08839352 14397,6917.882,95.438,541.024,538.47,0.0
53533.0,STARLINK-4493,PAYLOAD,2022-11-22 00:26:00,15.08844253,0.0001888,53.2198,77.6049,43.5906,316.5235,2.4387e-05,1e-06,0.0,0 STARLINK-4493,1 53533U 22101G   22326.01806328  .00000100  00000-0  24387-4 0  9997,2 53533  53.2198  77.6049 0001888  43.5906 316.5235 15.08844253 14453,6917.8669999999975,95.437,541.038,538.4259999999998,0.0
53533.0,STARLINK-4493,PAYLOAD,2022-11-22 09:58:20,15.08826884,0.0001932,53.2198,75.8209,41.967,318.147,3.8275e-05,3.21e-06,0.0,0 STARLINK-4493,1 53533U 22101G   22326.41551440  .00000321  00000-0  38275-4 0  9999,2 53533  53.2198  75.8209 0001932  41.9670 318.1470 15.08826884 14517,6917.92,95.438,541.122,538.4490000000002,0.0
53533.0,STARLINK-4493,PAYLOAD,2022-11-22 13:09:06,15.08825383,0.0001947,53.2198,75.2264,42.1138,318.0004,2.3411e-05,8.4e-07,0.0,0 STARLINK-4493,1 53533U 22101G   22326.54799693  .00000084  00000-0  23411-4 0  9999,2 53533  53.2198  75.2264 0001947  42.1138 318.0004 15.08825383 14537,6917.925,95.438,541.137,538.443,0.0
53533.0,STARLINK-4493,PAYLOAD,2022-11-22 14:44:30,15.08825238,0.0001954,53.2198,74.929,42.7716,317.3428,2.0414e-05,3.7e-07,0.0,0 STARLINK-4493,1 53533U 22101G   22326.61423776  .00000037  00000-0  20414-4 0  9991,2 53533  53.2198  74.9290 0001954  42.7716 317.3428 15.08825238 14540,6917.926,95.438,541.1419999999998,538.439,0.0
53533.0,STARLINK-4493,PAYLOAD,2022-11-23 09:49:07,15.08830996,0.0001958,53.2204,71.36,51.4287,308.688,0.00013535,1.866e-05,0.0,0 STARLINK-4493,1 53533U 22101G   22327.40911549  .00001866  00000-0  13535-3 0  9995,2 53533  53.2204  71.3600 0001958  51.4287 308.6880 15.08830996 14663,6917.908,95.438,541.127,538.418,0.0
53533.0,STARLINK-4493,PAYLOAD,2022-11-24 09:39:54,15.08833549,0.000226,53.2204,66.8993,46.8994,313.2187,0.00010001,1.303e-05,0.0,0 STARLINK-4493,1 53533U 22101G   22328.40271879  .00001303  00000-0  10001-3 0  9992,2 53533  53.2204  66.8993 0002260  46.8994 313.2187 15.08833549 14813,6917.9,95.438,541.3290000000002,538.202,0.0
